STARLINK-36791          
1 68111U 26044L   26077.58334491 -.01892537  00000+0 -84508-2 0  9995
2 68111  97.2819  38.1463 0001738 101.1300  92.5866 15.87417096  2786
STARLINK-36893          
1 68112U 26044M   26077.58334491 -.01901376  00000+0 -84391-2 0  9998
2 68112  97.2815  38.1473 0001817  93.6046 103.6891 15.87554326  2830
STARLINK-36937          
1 68113U 26044N   26077.58334491 -.01924834  00000+0 -84537-2 0  9995
2 68113  97.2815  38.1507 0001908 105.4768  99.0981 15.87809285  2782
STARLINK-36229          
1 68114U 26044P   26077.58334491 -.01916688  00000+0 -84682-2 0  9995
2 68114  97.2808  38.1481 0001892 105.0459  95.9693 15.87674668  2837
STARLINK-36392          
1 68115U 26044Q   26077.58334491 -.02002871  00000+0 -85731-2 0  9993
2 68115  97.2810  38.1520 0001834 103.1181 105.3717 15.87911608  2833
STARLINK-36805          
1 68116U 26044R   26077.58334491 -.02051682  00000+0 -87818-2 0  9996
2 68116  97.2807  38.1535 0001852 102.1419 110.4997 15.87986662  2838
STARLINK-36844          
1 68117U 26044S   26077.58334491 -.02064177  00000+0 -87870-2 0  9998
2 68117  97.2803  38.1547 0001895 106.6434 109.5972 15.88114894  2788
STARLINK-36789          
1 68118U 26044T   26077.58334491 -.02132823  00000+0 -91675-2 0  9991
2 68118  97.2802  38.1572 0001887 102.5434 118.9753 15.88028547  2782
STARLINK-36850          
1 68119U 26044U   26077.58334491 -.02139073  00000+0 -91461-2 0  9999
2 68119  97.2801  38.1588 0001950 107.0891 118.0970 15.88142537  2785
STARLINK-36868          
1 68120U 26044V   26077.58334491 -.02150179  00000+0 -91781-2 0  9996
2 68120  97.2795  38.1607 0001825  97.6202 131.6723 15.88195623  2783
STARLINK-36855          
1 68121U 26044W   26077.58334491 -.02155860  00000+0 -91708-2 0  9998
2 68121  97.2795  38.1626 0001880 102.9319 130.2785 15.88272218  2784
STARLINK-36366          
1 68122U 26044X   26077.58334491 -.02154502  00000+0 -91085-2 0  9999
2 68122  97.2793  38.1638 0001820 104.6114 132.1628 15.88394350  2837
