CCSDS_OMM_VERS = 2.0
CREATION_DATE  = 
ORIGINATOR     = 

OBJECT_NAME    = STARLINK-36791
OBJECT_ID      = 2026-044L
CENTER_NAME    = EARTH
REF_FRAME      = TEME
TIME_SYSTEM    = UTC
MEAN_ELEMENT_THEORY = SGP/SGP4

EPOCH          = 2026-03-18T14:00:01.000224
MEAN_MOTION    = 15.87417096
ECCENTRICITY   = .00017388
INCLINATION    = 97.2819
RA_OF_ASC_NODE = 38.1463
ARG_OF_PERICENTER = 101.1300
MEAN_ANOMALY   = 92.5866

EPHEMERIS_TYPE = 0
CLASSIFICATION_TYPE = U
NORAD_CAT_ID   = 68111
ELEMENT_SET_NO = 999
REV_AT_EPOCH   = 278
BSTAR          = -.84508063E-2
MEAN_MOTION_DOT = -.1892537E-1
MEAN_MOTION_DDOT = 0

CCSDS_OMM_VERS = 2.0
CREATION_DATE  = 
ORIGINATOR     = 

OBJECT_NAME    = STARLINK-36893
OBJECT_ID      = 2026-044M
CENTER_NAME    = EARTH
REF_FRAME      = TEME
TIME_SYSTEM    = UTC
MEAN_ELEMENT_THEORY = SGP/SGP4

EPOCH          = 2026-03-18T14:00:01.000224
MEAN_MOTION    = 15.87554326
ECCENTRICITY   = .00018173
INCLINATION    = 97.2815
RA_OF_ASC_NODE = 38.1473
ARG_OF_PERICENTER = 93.6046
MEAN_ANOMALY   = 103.6891

EPHEMERIS_TYPE = 0
CLASSIFICATION_TYPE = U
NORAD_CAT_ID   = 68112
ELEMENT_SET_NO = 999
REV_AT_EPOCH   = 283
BSTAR          = -.84391064E-2
MEAN_MOTION_DOT = -.1901376E-1
MEAN_MOTION_DDOT = 0

CCSDS_OMM_VERS = 2.0
CREATION_DATE  = 
ORIGINATOR     = 

OBJECT_NAME    = STARLINK-36937
OBJECT_ID      = 2026-044N
CENTER_NAME    = EARTH
REF_FRAME      = TEME
TIME_SYSTEM    = UTC
MEAN_ELEMENT_THEORY = SGP/SGP4

EPOCH          = 2026-03-18T14:00:01.000224
MEAN_MOTION    = 15.87809285
ECCENTRICITY   = .00019084
INCLINATION    = 97.2815
RA_OF_ASC_NODE = 38.1507
ARG_OF_PERICENTER = 105.4768
MEAN_ANOMALY   = 99.0981

EPHEMERIS_TYPE = 0
CLASSIFICATION_TYPE = U
NORAD_CAT_ID   = 68113
ELEMENT_SET_NO = 999
REV_AT_EPOCH   = 278
BSTAR          = -.8453727E-2
MEAN_MOTION_DOT = -.1924834E-1
MEAN_MOTION_DDOT = 0

CCSDS_OMM_VERS = 2.0
CREATION_DATE  = 
ORIGINATOR     = 

OBJECT_NAME    = STARLINK-36229
OBJECT_ID      = 2026-044P
CENTER_NAME    = EARTH
REF_FRAME      = TEME
TIME_SYSTEM    = UTC
MEAN_ELEMENT_THEORY = SGP/SGP4

EPOCH          = 2026-03-18T14:00:01.000224
MEAN_MOTION    = 15.87674668
ECCENTRICITY   = .00018929
INCLINATION    = 97.2808
RA_OF_ASC_NODE = 38.1481
ARG_OF_PERICENTER = 105.0459
MEAN_ANOMALY   = 95.9693

EPHEMERIS_TYPE = 0
CLASSIFICATION_TYPE = U
NORAD_CAT_ID   = 68114
ELEMENT_SET_NO = 999
REV_AT_EPOCH   = 283
BSTAR          = -.84681589E-2
MEAN_MOTION_DOT = -.1916688E-1
MEAN_MOTION_DDOT = 0

CCSDS_OMM_VERS = 2.0
CREATION_DATE  = 
ORIGINATOR     = 

OBJECT_NAME    = STARLINK-36392
OBJECT_ID      = 2026-044Q
CENTER_NAME    = EARTH
REF_FRAME      = TEME
TIME_SYSTEM    = UTC
MEAN_ELEMENT_THEORY = SGP/SGP4

EPOCH          = 2026-03-18T14:00:01.000224
MEAN_MOTION    = 15.87911608
ECCENTRICITY   = .00018345
INCLINATION    = 97.2810
RA_OF_ASC_NODE = 38.1520
ARG_OF_PERICENTER = 103.1181
MEAN_ANOMALY   = 105.3717

EPHEMERIS_TYPE = 0
CLASSIFICATION_TYPE = U
NORAD_CAT_ID   = 68115
ELEMENT_SET_NO = 999
REV_AT_EPOCH   = 283
BSTAR          = -.85730561E-2
MEAN_MOTION_DOT = -.2002871E-1
MEAN_MOTION_DDOT = 0

CCSDS_OMM_VERS = 2.0
CREATION_DATE  = 
ORIGINATOR     = 

OBJECT_NAME    = STARLINK-36805
OBJECT_ID      = 2026-044R
CENTER_NAME    = EARTH
REF_FRAME      = TEME
TIME_SYSTEM    = UTC
MEAN_ELEMENT_THEORY = SGP/SGP4

EPOCH          = 2026-03-18T14:00:01.000224
MEAN_MOTION    = 15.87986662
ECCENTRICITY   = .00018529
INCLINATION    = 97.2807
RA_OF_ASC_NODE = 38.1535
ARG_OF_PERICENTER = 102.1419
MEAN_ANOMALY   = 110.4997

EPHEMERIS_TYPE = 0
CLASSIFICATION_TYPE = U
NORAD_CAT_ID   = 68116
ELEMENT_SET_NO = 999
REV_AT_EPOCH   = 283
BSTAR          = -.87817751E-2
MEAN_MOTION_DOT = -.2051682E-1
MEAN_MOTION_DDOT = 0

CCSDS_OMM_VERS = 2.0
CREATION_DATE  = 
ORIGINATOR     = 

OBJECT_NAME    = STARLINK-36844
OBJECT_ID      = 2026-044S
CENTER_NAME    = EARTH
REF_FRAME      = TEME
TIME_SYSTEM    = UTC
MEAN_ELEMENT_THEORY = SGP/SGP4

EPOCH          = 2026-03-18T14:00:01.000224
MEAN_MOTION    = 15.88114894
ECCENTRICITY   = .0001895
INCLINATION    = 97.2803
RA_OF_ASC_NODE = 38.1547
ARG_OF_PERICENTER = 106.6434
MEAN_ANOMALY   = 109.5972

EPHEMERIS_TYPE = 0
CLASSIFICATION_TYPE = U
NORAD_CAT_ID   = 68117
ELEMENT_SET_NO = 999
REV_AT_EPOCH   = 278
BSTAR          = -.87870014E-2
MEAN_MOTION_DOT = -.2064177E-1
MEAN_MOTION_DDOT = 0

CCSDS_OMM_VERS = 2.0
CREATION_DATE  = 
ORIGINATOR     = 

OBJECT_NAME    = STARLINK-36789
OBJECT_ID      = 2026-044T
CENTER_NAME    = EARTH
REF_FRAME      = TEME
TIME_SYSTEM    = UTC
MEAN_ELEMENT_THEORY = SGP/SGP4

EPOCH          = 2026-03-18T14:00:01.000224
MEAN_MOTION    = 15.88028547
ECCENTRICITY   = .00018876
INCLINATION    = 97.2802
RA_OF_ASC_NODE = 38.1572
ARG_OF_PERICENTER = 102.5434
MEAN_ANOMALY   = 118.9753

EPHEMERIS_TYPE = 0
CLASSIFICATION_TYPE = U
NORAD_CAT_ID   = 68118
ELEMENT_SET_NO = 999
REV_AT_EPOCH   = 278
BSTAR          = -.91674933E-2
MEAN_MOTION_DOT = -.2132823E-1
MEAN_MOTION_DDOT = 0

CCSDS_OMM_VERS = 2.0
CREATION_DATE  = 
ORIGINATOR     = 

OBJECT_NAME    = STARLINK-36850
OBJECT_ID      = 2026-044U
CENTER_NAME    = EARTH
REF_FRAME      = TEME
TIME_SYSTEM    = UTC
MEAN_ELEMENT_THEORY = SGP/SGP4

EPOCH          = 2026-03-18T14:00:01.000224
MEAN_MOTION    = 15.88142537
ECCENTRICITY   = .00019509
INCLINATION    = 97.2801
RA_OF_ASC_NODE = 38.1588
ARG_OF_PERICENTER = 107.0891
MEAN_ANOMALY   = 118.0970

EPHEMERIS_TYPE = 0
CLASSIFICATION_TYPE = U
NORAD_CAT_ID   = 68119
ELEMENT_SET_NO = 999
REV_AT_EPOCH   = 278
BSTAR          = -.91461113E-2
MEAN_MOTION_DOT = -.2139073E-1
MEAN_MOTION_DDOT = 0

CCSDS_OMM_VERS = 2.0
CREATION_DATE  = 
ORIGINATOR     = 

OBJECT_NAME    = STARLINK-36868
OBJECT_ID      = 2026-044V
CENTER_NAME    = EARTH
REF_FRAME      = TEME
TIME_SYSTEM    = UTC
MEAN_ELEMENT_THEORY = SGP/SGP4

EPOCH          = 2026-03-18T14:00:01.000224
MEAN_MOTION    = 15.88195623
ECCENTRICITY   = .00018254
INCLINATION    = 97.2795
RA_OF_ASC_NODE = 38.1607
ARG_OF_PERICENTER = 97.6202
MEAN_ANOMALY   = 131.6723

EPHEMERIS_TYPE = 0
CLASSIFICATION_TYPE = U
NORAD_CAT_ID   = 68120
ELEMENT_SET_NO = 999
REV_AT_EPOCH   = 278
BSTAR          = -.91781292E-2
MEAN_MOTION_DOT = -.2150179E-1
MEAN_MOTION_DDOT = 0

CCSDS_OMM_VERS = 2.0
CREATION_DATE  = 
ORIGINATOR     = 

OBJECT_NAME    = STARLINK-36855
OBJECT_ID      = 2026-044W
CENTER_NAME    = EARTH
REF_FRAME      = TEME
TIME_SYSTEM    = UTC
MEAN_ELEMENT_THEORY = SGP/SGP4

EPOCH          = 2026-03-18T14:00:01.000224
MEAN_MOTION    = 15.88272218
ECCENTRICITY   = .00018808
INCLINATION    = 97.2795
RA_OF_ASC_NODE = 38.1626
ARG_OF_PERICENTER = 102.9319
MEAN_ANOMALY   = 130.2785

EPHEMERIS_TYPE = 0
CLASSIFICATION_TYPE = U
NORAD_CAT_ID   = 68121
ELEMENT_SET_NO = 999
REV_AT_EPOCH   = 278
BSTAR          = -.91708306E-2
MEAN_MOTION_DOT = -.215586E-1
MEAN_MOTION_DDOT = 0

CCSDS_OMM_VERS = 2.0
CREATION_DATE  = 
ORIGINATOR     = 

OBJECT_NAME    = STARLINK-36366
OBJECT_ID      = 2026-044X
CENTER_NAME    = EARTH
REF_FRAME      = TEME
TIME_SYSTEM    = UTC
MEAN_ELEMENT_THEORY = SGP/SGP4

EPOCH          = 2026-03-18T14:00:01.000224
MEAN_MOTION    = 15.88394350
ECCENTRICITY   = .00018205
INCLINATION    = 97.2793
RA_OF_ASC_NODE = 38.1638
ARG_OF_PERICENTER = 104.6114
MEAN_ANOMALY   = 132.1628

EPHEMERIS_TYPE = 0
CLASSIFICATION_TYPE = U
NORAD_CAT_ID   = 68122
ELEMENT_SET_NO = 999
REV_AT_EPOCH   = 283
BSTAR          = -.91084962E-2
MEAN_MOTION_DOT = -.2154502E-1
MEAN_MOTION_DDOT = 0

